[Satellite]
VERSION=1.1
NAME=ATS 3
NICKNAME=ATS 3
TLE1=1 03029U 67111A   11058.73025418 -.00000112  00000-0  10000-3 0  7981
TLE2=2 03029   8.5125 314.5394 0018009  59.2185 300.9714  1.00272219158602
